API VERSION: 1.2
API SOURCE: NASA/JPL Horizons API



*******************************************************************************
Ephemeris / API_USER Wed Apr 15 12:09:56 2026 Pasadena, USA      / Horizons
*******************************************************************************
Target body name: Jupiter (599)                   {source: jup365_merged}
Center body name: Sun (10)                        {source: jup365_merged}
Center-site name: BODY CENTER
*******************************************************************************
Start time      : A.D. 1900-Jan-01 00:00:00.0000 TDB
Stop  time      : A.D. 1999-Dec-18 00:00:00.0000 TDB
Step-size       : 43200 minutes
*******************************************************************************
Center geodetic : 0.0, 0.0, 0.0                   {E-lon(deg),Lat(deg),Alt(km)}
Center cylindric: 0.0, 0.0, 0.0                   {E-lon(deg),Dxy(km),Dz(km)}
Center radii    : 695700.0, 695700.0, 695700.0 km {Equator_a, b, pole_c}
Output units    : AU-D
Calendar mode   : Mixed Julian/Gregorian
Output type     : GEOMETRIC cartesian states
Output format   : 3 (position, velocity, LT, range, range-rate)
Reference frame : Ecliptic of J2000.0
*******************************************************************************
            JDTDB,            Calendar Date (TDB),                      X,                      Y,                      Z,                     VX,                     VY,                     VZ,                     LT,                     RG,                     RR,
**************************************************************************************************************************************************************************************************************************************************************************
$$SOE
2451020.500000000, A.D. 1998-Jul-26 00:00:00.0000,  4.872303298900138E+00, -1.005807515626373E+00, -1.049534249713186E-01,  1.426639522699724E-03,  7.751395878837293E-03, -6.403021689736721E-05,  2.873980758847642E-02,  4.976143428035096E+00, -1.685384676512005E-04,
2451050.500000000, A.D. 1998-Aug-25 00:00:00.0000,  4.909817597815741E+00, -7.722705452367306E-01, -1.067603184044368E-01,  1.073401082529870E-03,  7.816572815849855E-03, -5.635072302172625E-05,  2.871199966726679E-02,  4.971328635731819E+00, -1.529348511105446E-04,
2451080.500000000, A.D. 1998-Sep-24 00:00:00.0000,  4.936679092496429E+00, -5.370582543345339E-01, -1.083357344078424E-01,  7.164093671401171E-04,  7.863529260352902E-03, -4.858656424398569E-05,  2.868692958908310E-02,  4.966987886253590E+00, -1.371508261193970E-04,
2451110.500000000, A.D. 1998-Oct-24 00:00:00.0000,  4.952803333956871E+00, -3.006777438024811E-01, -1.096757076900874E-01,  3.580986264207875E-04,  7.893141051422775E-03, -4.069557761262996E-05,  2.866467001904859E-02,  4.963133761176478E+00, -1.199315763794108E-04,
2451140.500000000, A.D. 1998-Nov-23 00:00:00.0000,  4.958131981194108E+00, -6.363934473008562E-02, -1.107766581360096E-01, -2.498654172563875E-06,  7.906259160218530E-03, -3.268650559566624E-05,  2.864528664408583E-02,  4.959777633838565E+00, -1.032136812015205E-04,
2451170.500000000, A.D. 1998-Dec-23 00:00:00.0000,  4.952631445621373E+00,  1.735395294366142E-01, -1.116356819472546E-01, -3.633237548674963E-04,  7.902720034131627E-03, -2.455842110660876E-05,  2.862882942453897E-02,  4.956928154605285E+00, -8.578553651673091E-05,
2451200.500000000, A.D. 1999-Jan-22 00:00:00.0000,  4.936293904617679E+00,  4.103402912304562E-01, -1.122504708262509E-01, -7.247868839100041E-04,  7.882367980270574E-03, -1.636004407694874E-05,  2.861533397690465E-02,  4.954591490281865E+00, -6.892020918401536E-05,
2451230.500000000, A.D. 1999-Feb-21 00:00:00.0000,  4.909137179996725E+00,  6.462426397741012E-01, -1.126193309523178E-01, -1.084756925650440E-03,  7.843043897232754E-03, -8.161858543111133E-06,  2.860481966503194E-02,  4.952770993614841E+00, -5.164623606441471E-05,
2451260.500000000, A.D. 1999-Mar-23 00:00:00.0000,  4.871210643045147E+00,  8.807279550798365E-01, -1.127411936195971E-01, -1.442557253481576E-03,  7.786575431816949E-03,  5.683256380316095E-08,  2.859732340967134E-02,  4.951473057233999E+00, -3.416195435948989E-05,
2451290.500000000, A.D. 1999-Apr-22 00:00:00.0000,  4.822591579274323E+00,  1.113280686731540E+00, -1.126156659644784E-01, -1.797338524564405E-03,  7.712767213843548E-03,  8.276137710443060E-06,  2.859287915096834E-02,  4.950703557693359E+00, -1.662124888762147E-05,
2451320.500000000, A.D. 1999-May-22 00:00:00.0000,  4.763384071122381E+00,  1.343389595182296E+00, -1.122429188734511E-01, -2.148034599209845E-03,  7.623728684488845E-03,  1.653835760567450E-05,  2.859151195580351E-02,  4.950466835188750E+00,  1.589281146627888E-06,
2451350.500000000, A.D. 1999-Jun-21 00:00:00.0000,  4.693714499182881E+00,  1.570550029287261E+00, -1.116237948506782E-01, -2.494842894530577E-03,  7.517557418855407E-03,  2.474061940474630E-05,  2.859321591870311E-02,  4.950761867219094E+00,  1.895831748786499E-05,
2451380.500000000, A.D. 1999-Jul-21 00:00:00.0000,  4.613736076091892E+00,  1.794264318708841E+00, -1.107597139632043E-01, -2.835551041975656E-03,  7.394403030596822E-03,  3.287572748396500E-05,  2.859798085887055E-02,  4.951586891034098E+00,  3.663231117792603E-05,
2451410.500000000, A.D. 1999-Aug-20 00:00:00.0000,  4.523628174340883E+00,  2.014044647434808E+00, -1.096525808515550E-01, -3.170499057177920E-03,  7.254313559905671E-03,  4.089770755944942E-05,  2.860579386755314E-02,  4.952939671552525E+00,  5.327502709173913E-05,
2451440.500000000, A.D. 1999-Sep-19 00:00:00.0000,  4.423597652704202E+00,  2.229410210012769E+00, -1.083050236114656E-01, -3.497156290563927E-03,  7.098721228711862E-03,  4.884616174664145E-05,  2.861663906550444E-02,  4.954817459368082E+00,  7.077131406364926E-05,
2451470.500000000, A.D. 1999-Oct-19 00:00:00.0000,  4.313876218638844E+00,  2.439893564317502E+00, -1.067202625498021E-01, -3.816315615552054E-03,  6.929198410349387E-03,  5.671665048548184E-05,  2.863049617926512E-02,  4.957216744240101E+00,  8.822301651786111E-05,
2451500.500000000, A.D. 1999-Nov-18 00:00:00.0000,  4.194716395330759E+00,  2.645039603037179E+00, -1.049021714041552E-01, -4.126300126348912E-03,  6.744414369093707E-03,  6.444703967990152E-05,  2.864731882309497E-02,  4.960129494726631E+00,  1.056068555566164E-04,
2451530.500000000, A.D. 1999-Dec-18 00:00:00.0000,  4.066395346588853E+00,  2.844409917242764E+00, -1.028552140928575E-01, -4.427175174237617E-03,  6.545177108530985E-03,  7.200273524235675E-05,  2.866706789623633E-02,  4.963548940741347E+00,  1.223149607391622E-04,
